ZHUHAI-1 01 (CAS-4A)    
1 42761U 17034D   25124.18507369  .00066916  00000+0  80233-3 0  9994
2 42761  43.0107 175.5710 0019778  37.7232 322.5015 15.59801417436933
CARTOSAT-2E             
1 42767U 17036C   25124.15884338  .00007215  00000+0  34478-3 0  9990
2 42767  97.4808 184.1903 0002143 267.3303  92.7686 15.19318463436040
FORMOSAT-5              
1 42920U 17049A   25123.95547083  .00000431  00000+0  12066-3 0  9997
2 42920  98.2591 202.4741 0009721 254.9117 105.1002 14.50796932407333
SENTINEL-5P             
1 42969U 17064A   25123.82121359  .00000154  00000+0  93898-4 0  9992
2 42969  98.7563  64.7197 0001060  76.1693 283.9601 14.19517607391488
SKYSAT-C11              
1 42987U 17068A   25124.11919985  .00020001  00000+0  52685-3 0  9990
2 42987  97.3882 258.3133 0000615 147.7436 212.3847 15.38561515420001
SKYSAT-C10              
1 42988U 17068B   25123.86985439  .00014923  00000+0  48980-3 0  9998
2 42988  97.3992 254.6954 0004452  64.1513 296.0187 15.31681120419681
SKYSAT-C9               
1 42989U 17068C   25123.86497730  .00017318  00000+0  51119-3 0  9990
2 42989  97.3909 253.3143 0010118 151.4921 208.6878 15.34991338419904
SKYSAT-C8               
1 42990U 17068D   25123.84651944  .00015453  00000+0  51068-3 0  9990
2 42990  97.4015 253.5829 0000880 172.0534 188.0721 15.31461252419588
SKYSAT-C7               
1 42991U 17068E   25123.90099332  .00015663  00000+0  51532-3 0  9994
2 42991  97.4019 254.7469 0005738 142.1035 218.0611 15.31586756419665
SKYSAT-C6               
1 42992U 17068F   25124.14396966  .00018061  00000+0  62746-3 0  9999
2 42992  97.4048 255.7783 0005687 105.0628 255.1242 15.29791569419712
CARTOSAT-2F             
1 43111U 18004A   25124.19371676  .00007511  10991-7  35668-3 0  9999
2 43111  97.4565 184.9732 0001576 191.6920 168.4278 15.19288876387075
GAOFEN-1 02             
1 43259U 18031A   25124.17748654  .00001548  00000+0  22868-3 0  9998
2 43259  97.7749 186.8307 0003949 219.6007 140.4916 14.76593292382344
GAOFEN-1 03             
1 43260U 18031B   25124.15569362  .00001525  00000+0  22533-3 0  9999
2 43260  97.7743 186.7066 0004309 267.0571  93.0146 14.76609275382331
GAOFEN-1 04             
1 43262U 18031D   25124.19898861  .00001561  00000+0  23077-3 0  9998
2 43262  97.7753 186.8906 0000478 232.4678 127.6489 14.76562786382334
