[
  {
    "OBJECT_NAME": "ZHUHAI-1 01 (CAS-4A)",
    "OBJECT_ID": "2017-034D",
    "EPOCH": "2025-05-04T04:26:30.366816",
    "MEAN_MOTION": 15.59801417,
    "ECCENTRICITY": 0.0019778,
    "INCLINATION": 43.0107,
    "RA_OF_ASC_NODE": 175.571,
    "ARG_OF_PERICENTER": 37.7232,
    "MEAN_ANOMALY": 322.5015,
    "EPHEMERIS_TYPE": 0,
    "CLASSIFICATION_TYPE": "U",
    "NORAD_CAT_ID": 42761,
    "ELEMENT_SET_NO": 999,
    "REV_AT_EPOCH": 43693,
    "BSTAR": 0.00080233,
    "MEAN_MOTION_DOT": 0.00066916,
    "MEAN_MOTION_DDOT": 0
  },
  {
    "OBJECT_NAME": "CARTOSAT-2E",
    "OBJECT_ID": "2017-036C",
    "EPOCH": "2025-05-04T03:48:44.068032",
    "MEAN_MOTION": 15.19318463,
    "ECCENTRICITY": 0.0002143,
    "INCLINATION": 97.4808,
    "RA_OF_ASC_NODE": 184.1903,
    "ARG_OF_PERICENTER": 267.3303,
    "MEAN_ANOMALY": 92.7686,
    "EPHEMERIS_TYPE": 0,
    "CLASSIFICATION_TYPE": "U",
    "NORAD_CAT_ID": 42767,
    "ELEMENT_SET_NO": 999,
    "REV_AT_EPOCH": 43604,
    "BSTAR": 0.00034478,
    "MEAN_MOTION_DOT": 7.215e-05,
    "MEAN_MOTION_DDOT": 0
  },
  {
    "OBJECT_NAME": "FORMOSAT-5",
    "OBJECT_ID": "2017-049A",
    "EPOCH": "2025-05-03T22:55:52.679712",
    "MEAN_MOTION": 14.50796932,
    "ECCENTRICITY": 0.0009721,
    "INCLINATION": 98.2591,
    "RA_OF_ASC_NODE": 202.4741,
    "ARG_OF_PERICENTER": 254.9117,
    "MEAN_ANOMALY": 105.1002,
    "EPHEMERIS_TYPE": 0,
    "CLASSIFICATION_TYPE": "U",
    "NORAD_CAT_ID": 42920,
    "ELEMENT_SET_NO": 999,
    "REV_AT_EPOCH": 40733,
    "BSTAR": 0.00012066,
    "MEAN_MOTION_DOT": 4.31e-06,
    "MEAN_MOTION_DDOT": 0
  },
  {
    "OBJECT_NAME": "SENTINEL-5P",
    "OBJECT_ID": "2017-064A",
    "EPOCH": "2025-05-03T19:42:32.854176",
    "MEAN_MOTION": 14.19517607,
    "ECCENTRICITY": 0.000106,
    "INCLINATION": 98.7563,
    "RA_OF_ASC_NODE": 64.7197,
    "ARG_OF_PERICENTER": 76.1693,
    "MEAN_ANOMALY": 283.9601,
    "EPHEMERIS_TYPE": 0,
    "CLASSIFICATION_TYPE": "U",
    "NORAD_CAT_ID": 42969,
    "ELEMENT_SET_NO": 999,
    "REV_AT_EPOCH": 39148,
    "BSTAR": 9.3898e-05,
    "MEAN_MOTION_DOT": 1.54e-06,
    "MEAN_MOTION_DDOT": 0
  },
  {
    "OBJECT_NAME": "SKYSAT-C11",
    "OBJECT_ID": "2017-068A",
    "EPOCH": "2025-05-04T02:51:38.867040",
    "MEAN_MOTION": 15.38561515,
    "ECCENTRICITY": 6.15e-05,
    "INCLINATION": 97.3882,
    "RA_OF_ASC_NODE": 258.3133,
    "ARG_OF_PERICENTER": 147.7436,
    "MEAN_ANOMALY": 212.3847,
    "EPHEMERIS_TYPE": 0,
    "CLASSIFICATION_TYPE": "U",
    "NORAD_CAT_ID": 42987,
    "ELEMENT_SET_NO": 999,
    "REV_AT_EPOCH": 42000,
    "BSTAR": 0.00052685,
    "MEAN_MOTION_DOT": 0.00020001,
    "MEAN_MOTION_DDOT": 0
  },
  {
    "OBJECT_NAME": "SKYSAT-C10",
    "OBJECT_ID": "2017-068B",
    "EPOCH": "2025-05-03T20:52:35.419296",
    "MEAN_MOTION": 15.3168112,
    "ECCENTRICITY": 0.0004452,
    "INCLINATION": 97.3992,
    "RA_OF_ASC_NODE": 254.6954,
    "ARG_OF_PERICENTER": 64.1513,
    "MEAN_ANOMALY": 296.0187,
    "EPHEMERIS_TYPE": 0,
    "CLASSIFICATION_TYPE": "U",
    "NORAD_CAT_ID": 42988,
    "ELEMENT_SET_NO": 999,
    "REV_AT_EPOCH": 41968,
    "BSTAR": 0.0004898,
    "MEAN_MOTION_DOT": 0.00014923,
    "MEAN_MOTION_DDOT": 0
  },
  {
    "OBJECT_NAME": "SKYSAT-C9",
    "OBJECT_ID": "2017-068C",
    "EPOCH": "2025-05-03T20:45:34.038720",
    "MEAN_MOTION": 15.34991338,
    "ECCENTRICITY": 0.0010118,
    "INCLINATION": 97.3909,
    "RA_OF_ASC_NODE": 253.3143,
    "ARG_OF_PERICENTER": 151.4921,
    "MEAN_ANOMALY": 208.6878,
    "EPHEMERIS_TYPE": 0,
    "CLASSIFICATION_TYPE": "U",
    "NORAD_CAT_ID": 42989,
    "ELEMENT_SET_NO": 999,
    "REV_AT_EPOCH": 41990,
    "BSTAR": 0.00051119,
    "MEAN_MOTION_DOT": 0.00017318,
    "MEAN_MOTION_DDOT": 0
  },
  {
    "OBJECT_NAME": "SKYSAT-C8",
    "OBJECT_ID": "2017-068D",
    "EPOCH": "2025-05-03T20:18:59.279616",
    "MEAN_MOTION": 15.31461252,
    "ECCENTRICITY": 8.8e-05,
    "INCLINATION": 97.4015,
    "RA_OF_ASC_NODE": 253.5829,
    "ARG_OF_PERICENTER": 172.0534,
    "MEAN_ANOMALY": 188.0721,
    "EPHEMERIS_TYPE": 0,
    "CLASSIFICATION_TYPE": "U",
    "NORAD_CAT_ID": 42990,
    "ELEMENT_SET_NO": 999,
    "REV_AT_EPOCH": 41958,
    "BSTAR": 0.00051068,
    "MEAN_MOTION_DOT": 0.00015453,
    "MEAN_MOTION_DDOT": 0
  },
  {
    "OBJECT_NAME": "SKYSAT-C7",
    "OBJECT_ID": "2017-068E",
    "EPOCH": "2025-05-03T21:37:25.822848",
    "MEAN_MOTION": 15.31586756,
    "ECCENTRICITY": 0.0005738,
    "INCLINATION": 97.4019,
    "RA_OF_ASC_NODE": 254.7469,
    "ARG_OF_PERICENTER": 142.1035,
    "MEAN_ANOMALY": 218.0611,
    "EPHEMERIS_TYPE": 0,
    "CLASSIFICATION_TYPE": "U",
    "NORAD_CAT_ID": 42991,
    "ELEMENT_SET_NO": 999,
    "REV_AT_EPOCH": 41966,
    "BSTAR": 0.00051532,
    "MEAN_MOTION_DOT": 0.00015663,
    "MEAN_MOTION_DDOT": 0
  },
  {
    "OBJECT_NAME": "SKYSAT-C6",
    "OBJECT_ID": "2017-068F",
    "EPOCH": "2025-05-04T03:27:18.978624",
    "MEAN_MOTION": 15.29791569,
    "ECCENTRICITY": 0.0005687,
    "INCLINATION": 97.4048,
    "RA_OF_ASC_NODE": 255.7783,
    "ARG_OF_PERICENTER": 105.0628,
    "MEAN_ANOMALY": 255.1242,
    "EPHEMERIS_TYPE": 0,
    "CLASSIFICATION_TYPE": "U",
    "NORAD_CAT_ID": 42992,
    "ELEMENT_SET_NO": 999,
    "REV_AT_EPOCH": 41971,
    "BSTAR": 0.00062746,
    "MEAN_MOTION_DOT": 0.00018061,
    "MEAN_MOTION_DDOT": 0
  },
  {
    "OBJECT_NAME": "CARTOSAT-2F",
    "OBJECT_ID": "2018-004A",
    "EPOCH": "2025-05-04T04:38:57.128064",
    "MEAN_MOTION": 15.19288876,
    "ECCENTRICITY": 0.0001576,
    "INCLINATION": 97.4565,
    "RA_OF_ASC_NODE": 184.9732,
    "ARG_OF_PERICENTER": 191.692,
    "MEAN_ANOMALY": 168.4278,
    "EPHEMERIS_TYPE": 0,
    "CLASSIFICATION_TYPE": "U",
    "NORAD_CAT_ID": 43111,
    "ELEMENT_SET_NO": 999,
    "REV_AT_EPOCH": 38707,
    "BSTAR": 0.00035668,
    "MEAN_MOTION_DOT": 7.511e-05,
    "MEAN_MOTION_DDOT": 1.0991e-08
  },
  {
    "OBJECT_NAME": "GAOFEN-1 02",
    "OBJECT_ID": "2018-031A",
    "EPOCH": "2025-05-04T04:15:34.837056",
    "MEAN_MOTION": 14.76593292,
    "ECCENTRICITY": 0.0003949,
    "INCLINATION": 97.7749,
    "RA_OF_ASC_NODE": 186.8307,
    "ARG_OF_PERICENTER": 219.6007,
    "MEAN_ANOMALY": 140.4916,
    "EPHEMERIS_TYPE": 0,
    "CLASSIFICATION_TYPE": "U",
    "NORAD_CAT_ID": 43259,
    "ELEMENT_SET_NO": 999,
    "REV_AT_EPOCH": 38234,
    "BSTAR": 0.00022868,
    "MEAN_MOTION_DOT": 1.548e-05,
    "MEAN_MOTION_DDOT": 0
  },
  {
    "OBJECT_NAME": "GAOFEN-1 03",
    "OBJECT_ID": "2018-031B",
    "EPOCH": "2025-05-04T03:44:11.928768",
    "MEAN_MOTION": 14.76609275,
    "ECCENTRICITY": 0.0004309,
    "INCLINATION": 97.7743,
    "RA_OF_ASC_NODE": 186.7066,
    "ARG_OF_PERICENTER": 267.0571,
    "MEAN_ANOMALY": 93.0146,
    "EPHEMERIS_TYPE": 0,
    "CLASSIFICATION_TYPE": "U",
    "NORAD_CAT_ID": 43260,
    "ELEMENT_SET_NO": 999,
    "REV_AT_EPOCH": 38233,
    "BSTAR": 0.00022533,
    "MEAN_MOTION_DOT": 1.525e-05,
    "MEAN_MOTION_DDOT": 0
  },
  {
    "OBJECT_NAME": "GAOFEN-1 04",
    "OBJECT_ID": "2018-031D",
    "EPOCH": "2025-05-04T04:46:32.615904",
    "MEAN_MOTION": 14.76562786,
    "ECCENTRICITY": 4.78e-05,
    "INCLINATION": 97.7753,
    "RA_OF_ASC_NODE": 186.8906,
    "ARG_OF_PERICENTER": 232.4678,
    "MEAN_ANOMALY": 127.6489,
    "EPHEMERIS_TYPE": 0,
    "CLASSIFICATION_TYPE": "U",
    "NORAD_CAT_ID": 43262,
    "ELEMENT_SET_NO": 999,
    "REV_AT_EPOCH": 38233,
    "BSTAR": 0.00023077,
    "MEAN_MOTION_DOT": 1.561e-05,
    "MEAN_MOTION_DDOT": 0
  }
]